{"type": "FeatureCollection", "features": [ {"type": "Feature", "properties": {"norad_id": 34878, "name": "COSMOS 2251 DEB", "group": "cosmos-2251-debris", "lat": -62.61835541293276, "lon": -117.46001310639632, "alt_km": 1265.4877631448771, "timestamp": "2025-12-24T09:46:31.400360+00:00", "meta": {"OBJECT_NAME": "COSMOS 2251 DEB", "OBJECT_ID": "1993-036ACR", "EPOCH": "2025-12-23T20:54:13.288896", "MEAN_MOTION": 13.44205311, "ECCENTRICITY": 0.0435702, "INCLINATION": 73.965, "RA_OF_ASC_NODE": 29.6641, "ARG_OF_PERICENTER": 10.9994, "MEAN_ANOMALY": 166.3695, "EPHEMERIS_TYPE": 0, "CLASSIFICATION_TYPE": "U", "NORAD_CAT_ID": 34878, "ELEMENT_SET_NO": 999, "REV_AT_EPOCH": 81422, "BSTAR": 0.00069148, "MEAN_MOTION_DOT": 6.89e-06, "MEAN_MOTION_DDOT": 0}, "tle": {"line1": "1 34878U 93036ACR 25357.87098714  .00000689  00000+0  69148-3 0  9990", "line2": "2 34878  73.9650  29.6641 0435702  10.9994 166.3695 13.44205311814220"}}, "geometry": {"type": "Point", "coordinates": [-117.46001310639632, -62.61835541293276]}}, {"type": "Feature", "properties": {"norad_id": 34882, "name": "COSMOS 2251 DEB", "group": "cosmos-2251-debris", "lat": -44.512238732646054, "lon": -173.0513252560283, "alt_km": 637.2058110992803, "timestamp": "2025-12-24T09:46:31.400371+00:00", "meta": {"OBJECT_NAME": "COSMOS 2251 DEB", "OBJECT_ID": "1993-036ACV", "EPOCH": "2025-12-24T00:07:46.731936", "MEAN_MOTION": 14.61615644, "ECCENTRICITY": 0.008333, "INCLINATION": 74.0452, "RA_OF_ASC_NODE": 204.0518, "ARG_OF_PERICENTER": 328.3664, "MEAN_ANOMALY": 31.2508, "EPHEMERIS_TYPE": 0, "CLASSIFICATION_TYPE": "U", "NORAD_CAT_ID": 34882, "ELEMENT_SET_NO": 999, "REV_AT_EPOCH": 88689, "BSTAR": 0.00012522, "MEAN_MOTION_DOT": 6.21e-06, "MEAN_MOTION_DDOT": 0}, "tle": {"line1": "1 34882U 93036ACV 25358.00540199  .00000621  00000+0  12522-3 0  9990", "line2": "2 34882  74.0452 204.0518 0083330 328.3664  31.2508 14.61615644886894"}}, "geometry": {"type": "Point", "coordinates": [-173.0513252560283, -44.512238732646054]}}, {"type": "Feature", "properties": {"norad_id": 34883, "name": "COSMOS 2251 DEB", "group": "cosmos-2251-debris", "lat": -52.369063539900715, "lon": 19.416802324525943, "alt_km": 715.975329113111, "timestamp": "2025-12-24T09:46:31.400381+00:00", "meta": {"OBJECT_NAME": "COSMOS 2251 DEB", "OBJECT_ID": "1993-036ACW", "EPOCH": "2025-12-23T02:36:33.483168", "MEAN_MOTION": 14.51787467, "ECCENTRICITY": 0.00942228, "INCLINATION": 74.1995, "RA_OF_ASC_NODE": 43.3859, "ARG_OF_PERICENTER": 225.8341, "MEAN_ANOMALY": 133.505, "EPHEMERIS_TYPE": 0, "CLASSIFICATION_TYPE": "U", "NORAD_CAT_ID": 34883, "ELEMENT_SET_NO": 999, "REV_AT_EPOCH": 86590, "BSTAR": 0.003571855, "MEAN_MOTION_DOT": 0.00015225, "MEAN_MOTION_DDOT": 0}, "tle": {"line1": "1 34883U 93036ACW 25357.10872087  .00015225  00000+0  35719-2 0  9993", "line2": "2 34883  74.1995  43.3859 0094222 225.8341 133.5050 14.51787467865904"}}, "geometry": {"type": "Point", "coordinates": [19.416802324525943, -52.369063539900715]}}, {"type": "Feature", "properties": {"norad_id": 34884, "name": "COSMOS 2251 DEB", "group": "cosmos-2251-debris", "lat": 56.11278021379717, "lon": 58.61727571711648, "alt_km": 588.6359051995496, "timestamp": "2025-12-24T09:46:31.400398+00:00", "meta": {"OBJECT_NAME": "COSMOS 2251 DEB", "OBJECT_ID": "1993-036ACX", "EPOCH": "2025-12-24T03:19:49.421280", "MEAN_MOTION": 14.905541, "ECCENTRICITY": 0.0002979, "INCLINATION": 74.0171, "RA_OF_ASC_NODE": 33.8948, "ARG_OF_PERICENTER": 31.7852, "MEAN_ANOMALY": 27.5819, "EPHEMERIS_TYPE": 0, "CLASSIFICATION_TYPE": "U", "NORAD_CAT_ID": 34884, "ELEMENT_SET_NO": 999, "REV_AT_EPOCH": 87975, "BSTAR": 0.0023815, "MEAN_MOTION_DOT": 0.00023334, "MEAN_MOTION_DDOT": 0}, "tle": {"line1": "1 34884U 93036ACX 25358.13876645  .00023334  00000+0  23815-2 0  9996", "line2": "2 34884  74.0171  33.8948 0002979  31.7852  27.5819 14.90554100879754"}}, "geometry": {"type": "Point", "coordinates": [58.61727571711648, 56.11278021379717]}}, {"type": "Feature", "properties": {"norad_id": 34885, "name": "COSMOS 2251 DEB", "group": "cosmos-2251-debris", "lat": 58.16463314546405, "lon": -46.413210235636306, "alt_km": 721.245194542953, "timestamp": "2025-12-24T09:46:31.400409+00:00", "meta": {"OBJECT_NAME": "COSMOS 2251 DEB", "OBJECT_ID": "1993-036ACY", "EPOCH": "2025-12-23T18:25:17.940000", "MEAN_MOTION": 14.51558364, "ECCENTRICITY": 0.00150763, "INCLINATION": 74.0301, "RA_OF_ASC_NODE": 162.2571, "ARG_OF_PERICENTER": 247.7319, "MEAN_ANOMALY": 128.5918, "EPHEMERIS_TYPE": 0, "CLASSIFICATION_TYPE": "U", "NORAD_CAT_ID": 34885, "ELEMENT_SET_NO": 999, "REV_AT_EPOCH": 87639, "BSTAR": 0.00073001763, "MEAN_MOTION_DOT": 2.899e-05, "MEAN_MOTION_DDOT": 0}, "tle": {"line1": "1 34885U 93036ACY 25357.76756875  .00002899  00000+0  73002-3 0  9994", "line2": "2 34885  74.0301 162.2571 0015076 247.7319 128.5918 14.51558364876390"}}, "geometry": {"type": "Point", "coordinates": [-46.413210235636306, 58.16463314546405]}}, {"type": "Feature", "properties": {"norad_id": 34886, "name": "COSMOS 2251 DEB", "group": "cosmos-2251-debris", "lat": -66.48721455713488, "lon": 114.24638027706412, "alt_km": 439.1774223983557, "timestamp": "2025-12-24T09:46:31.400419+00:00", "meta": {"OBJECT_NAME": "COSMOS 2251 DEB", "OBJECT_ID": "1993-036ACZ", "EPOCH": "2025-12-19T05:20:10.106016", "MEAN_MOTION": 15.39455892, "ECCENTRICITY": 0.0031395, "INCLINATION": 73.9504, "RA_OF_ASC_NODE": 166.9286, "ARG_OF_PERICENTER": 349.772, "MEAN_ANOMALY": 10.2844, "EPHEMERIS_TYPE": 0, "CLASSIFICATION_TYPE": "U", "NORAD_CAT_ID": 34886, "ELEMENT_SET_NO": 999, "REV_AT_EPOCH": 63098, "BSTAR": 0.0012728, "MEAN_MOTION_DOT": 0.00051055, "MEAN_MOTION_DDOT": 0}, "tle": {"line1": "1 34886U 93036ACZ 25353.22233919  .00051055  00000+0  12728-2 0  9996", "line2": "2 34886  73.9504 166.9286 0031395 349.7720  10.2844 15.39455892630986"}}, "geometry": {"type": "Point", "coordinates": [114.24638027706412, -66.48721455713488]}}, {"type": "Feature", "properties": {"norad_id": 34907, "name": "COSMOS 2251 DEB", "group": "cosmos-2251-debris", "lat": -42.33903556239826, "lon": -142.0305984238447, "alt_km": 416.82542159512013, "timestamp": "2025-12-24T09:46:31.400430+00:00", "meta": {"OBJECT_NAME": "COSMOS 2251 DEB", "OBJECT_ID": "1993-036ADC", "EPOCH": "2025-12-24T02:37:30.224640", "MEAN_MOTION": 15.52535461, "ECCENTRICITY": 0.0016834, "INCLINATION": 73.9648, "RA_OF_ASC_NODE": 23.4353, "ARG_OF_PERICENTER": 325.481, "MEAN_ANOMALY": 34.5309, "EPHEMERIS_TYPE": 0, "CLASSIFICATION_TYPE": "U", "NORAD_CAT_ID": 34907, "ELEMENT_SET_NO": 999, "REV_AT_EPOCH": 88149, "BSTAR": 0.007429, "MEAN_MOTION_DOT": 0.00487105, "MEAN_MOTION_DDOT": 0}, "tle": {"line1": "1 34907U 93036ADC 25358.10937760  .00487105  00000+0  74290-2 0  9998", "line2": "2 34907  73.9648  23.4353 0016834 325.4810  34.5309 15.52535461881498"}}, "geometry": {"type": "Point", "coordinates": [-142.0305984238447, -42.33903556239826]}}, {"type": "Feature", "properties": {"norad_id": 34908, "name": "COSMOS 2251 DEB", "group": "cosmos-2251-debris", "lat": -50.702809748274255, "lon": -18.2253078362322, "alt_km": 762.798460938644, "timestamp": "2025-12-24T09:46:31.400441+00:00", "meta": {"OBJECT_NAME": "COSMOS 2251 DEB", "OBJECT_ID": "1993-036ADD", "EPOCH": "2025-12-22T07:59:02.454720", "MEAN_MOTION": 14.3742634, "ECCENTRICITY": 0.00405228, "INCLINATION": 74.0578, "RA_OF_ASC_NODE": 6.0278, "ARG_OF_PERICENTER": 19.2122, "MEAN_ANOMALY": 356.2877, "EPHEMERIS_TYPE": 0, "CLASSIFICATION_TYPE": "U", "NORAD_CAT_ID": 34908, "ELEMENT_SET_NO": 999, "REV_AT_EPOCH": 87417, "BSTAR": 0.00050310259, "MEAN_MOTION_DOT": 1.493e-05, "MEAN_MOTION_DDOT": 0}, "tle": {"line1": "1 34908U 93036ADD 25356.33266730  .00001493  00000+0  50310-3 0  9994", "line2": "2 34908  74.0578   6.0278 0040522  19.2122 356.2877 14.37426340874179"}}, "geometry": {"type": "Point", "coordinates": [-18.2253078362322, -50.702809748274255]}}, {"type": "Feature", "properties": {"norad_id": 34909, "name": "COSMOS 2251 DEB", "group": "cosmos-2251-debris", "lat": -20.084324746448598, "lon": 47.615621617856085, "alt_km": 692.7275485851451, "timestamp": "2025-12-24T09:46:31.400451+00:00", "meta": {"OBJECT_NAME": "COSMOS 2251 DEB", "OBJECT_ID": "1993-036ADE", "EPOCH": "2025-12-24T03:22:22.850400", "MEAN_MOTION": 14.77922194, "ECCENTRICITY": 0.0083726, "INCLINATION": 74.0138, "RA_OF_ASC_NODE": 54.1567, "ARG_OF_PERICENTER": 187.2937, "MEAN_ANOMALY": 172.7029, "EPHEMERIS_TYPE": 0, "CLASSIFICATION_TYPE": "U", "NORAD_CAT_ID": 34909, "ELEMENT_SET_NO": 999, "REV_AT_EPOCH": 67020, "BSTAR": 0.00050971, "MEAN_MOTION_DOT": 3.858e-05, "MEAN_MOTION_DDOT": 0}, "tle": {"line1": "1 34909U 93036ADE 25358.14054225  .00003858  00000+0  50971-3 0  9990", "line2": "2 34909  74.0138  54.1567 0083726 187.2937 172.7029 14.77922194670200"}}, "geometry": {"type": "Point", "coordinates": [47.615621617856085, -20.084324746448598]}}, {"type": "Feature", "properties": {"norad_id": 34910, "name": "COSMOS 2251 DEB", "group": "cosmos-2251-debris", "lat": 8.95664339538802, "lon": -99.6007218482852, "alt_km": 809.9951015172765, "timestamp": "2025-12-24T09:46:31.400461+00:00", "meta": {"OBJECT_NAME": "COSMOS 2251 DEB", "OBJECT_ID": "1993-036ADF", "EPOCH": "2025-12-23T22:45:30.280032", "MEAN_MOTION": 13.37707493, "ECCENTRICITY": 0.0467761, "INCLINATION": 73.8761, "RA_OF_ASC_NODE": 83.7364, "ARG_OF_PERICENTER": 200.8485, "MEAN_ANOMALY": 282.4529, "EPHEMERIS_TYPE": 0, "CLASSIFICATION_TYPE": "U", "NORAD_CAT_ID": 34910, "ELEMENT_SET_NO": 999, "REV_AT_EPOCH": 81674, "BSTAR": 0.0010465, "MEAN_MOTION_DOT": 1.013e-05, "MEAN_MOTION_DDOT": 0}, "tle": {"line1": "1 34910U 93036ADF 25357.94826713  .00001013  00000+0  10465-2 0  9992", "line2": "2 34910  73.8761  83.7364 0467761 200.8485 282.4529 13.37707493816742"}}, "geometry": {"type": "Point", "coordinates": [-99.6007218482852, 8.95664339538802]}}]}